[{"OBJECT_NAME":"STARLINK-30507","OBJECT_ID":"2023-151U","EPOCH":"2026-03-09T03:02:09.742560","MEAN_MOTION":15.02538442,"ECCENTRICITY":0.00010305,"INCLINATION":43.0052,"RA_OF_ASC_NODE":355.017,"ARG_OF_PERICENTER":262.7137,"MEAN_ANOMALY":97.3588,"EPHEMERIS_TYPE":0,"CLASSIFICATION_TYPE":"U","NORAD_CAT_ID":57982,"ELEMENT_SET_NO":999,"REV_AT_EPOCH":13549,"BSTAR":2.891353e-6,"MEAN_MOTION_DOT":-1.65e-6,"MEAN_MOTION_DDOT":0},{"OBJECT_NAME":"DELTA 1 DEB","OBJECT_ID":"1984-088G","EPOCH":"2026-03-08T09:15:52.675776","MEAN_MOTION":11.22084929,"ECCENTRICITY":0.17879711,"INCLINATION":28.736,"RA_OF_ASC_NODE":131.5031,"ARG_OF_PERICENTER":348.7228,"MEAN_ANOMALY":7.7805,"EPHEMERIS_TYPE":0,"CLASSIFICATION_TYPE":"U","NORAD_CAT_ID":19008,"ELEMENT_SET_NO":999,"REV_AT_EPOCH":55810,"BSTAR":0.0010315436,"MEAN_MOTION_DOT":1.852e-5,"MEAN_MOTION_DDOT":0}]
